IRIDIUM 171             
1 43929U 19002H   23302.75114506  .00000560  00000+0  19288-3 0  9999
2 43929  86.4022  35.5747 0002270  95.4317 264.7138 14.34218277251156
IRIDIUM 170             
1 43930U 19002J   23302.76182567  .00000034  00000+0  14417-5 0  9991
2 43930  86.6142  35.4253 0002312 100.5088 259.6390 14.72229217257803
IRIDIUM 167             
1 43931U 19002K   23302.81456939  .00000585  00000+0  20175-3 0  9992
2 43931  86.4013  35.3624 0002225  97.2238 262.9211 14.34218490251163
IRIDIUM 181             
1 56726U 23068S   23302.65905133  .00000227  00000+0  61313-4 0  9995
2 56726  86.8607  77.9339 0002643 117.6955 242.4515 14.43572658 23733
IRIDIUM 177             
1 56727U 23068T   23303.16284524  .00003107  00000+0  40547-3 0  9992
2 56727  86.1980  65.0263 0002270  91.1168 269.0313 14.80224850 24206
IRIDIUM 174             
1 56728U 23068U   23303.15741490  .00003188  00000+0  41608-3 0  9990
2 56728  86.1987  65.1138 0002043  88.7768 271.3687 14.80224608 24203
IRIDIUM 178             
1 56729U 23068V   23303.15195893  .00003152  00000+0  41143-3 0  9996
2 56729  86.5771  71.6321 0002257  86.5631 273.5848 14.80225815 24201
IRIDIUM 179             
1 56730U 23068W   23302.87614878  .00003029  00000+0  39507-3 0  9999
2 56730  86.6778  72.9715 0002277  90.8179 269.3303 14.80241632 24168
